STARLINK-4059           
1 53250U 22086J   22230.58334491  .00017126  00000+0  12601-3 0  9998
2 53250  53.2183 279.3868 0003135  16.5675  56.2349 15.73232477  1308
STARLINK-4129           
1 53251U 22086K   22230.58334491  .00023678  00000+0  17252-3 0  9995
2 53251  53.2185 279.3819 0003174  19.5467  55.6764 15.73214808  1304
STARLINK-4132           
1 53252U 22086L   22230.58334491 -.00012299  00000+0 -83108-4 0  9999
2 53252  53.2183 279.3854 0002798  16.6669  56.7455 15.73254484  1308
STARLINK-4133           
1 53253U 22086M   22230.58334491  .00007630  00000+0  58630-4 0  9993
2 53253  53.2172 279.3821 0008580 300.9183 134.8820 15.73224724  1304
STARLINK-4134           
1 53254U 22086N   22230.58334491  .00088490  00000+0  62834-3 0  9997
2 53254  53.2184 279.3827 0003398  11.2352  63.3850 15.73193454  1300
STARLINK-4142           
1 53255U 22086P   22230.58334491  .00015555  00000+0  11469-3 0  9998
2 53255  53.2182 279.3778 0008788 301.5987 135.3701 15.73236023  1306
STARLINK-4147           
1 53256U 22086Q   22230.58334491  .00022167  00000+0  16171-3 0  9991
2 53256  53.2188 279.3809 0003181   9.2273  67.1425 15.73231191  1306
STARLINK-4144           
1 53257U 22086R   22230.58334491 -.00008009  00000+0 -52549-4 0  9993
2 53257  53.2185 279.3753 0002722  18.1581  60.6380 15.73253207  1303
STARLINK-4127           
1 53258U 22086S   22230.58334491  .00023628  00000+0  17209-3 0  9999
2 53258  53.2185 279.3775 0002767  13.5950  63.9907 15.73225825  1302
STARLINK-4140           
1 53259U 22086T   22230.58334491  .00024415  00000+0  17761-3 0  9998
2 53259  53.2188 279.3753 0002765  16.1814  63.1603 15.73232583  1302
STARLINK-4136           
1 53260U 22086U   22230.58334491  .00025451  00000+0  18499-3 0  9990
2 53260  53.2182 279.3745 0002763  16.9084  61.2433 15.73226098  1308
STARLINK-4062           
1 53261U 22086V   22230.58334491  .00001565  00000+0  15559-4 0  9996
2 53261  53.2186 279.3715 0003288  11.0685  70.0446 15.73243775  1309
STARLINK-4085           
1 53262U 22086W   22230.58334491 -.00003616  00000+0 -21273-4 0  9998
2 53262  53.2183 279.3718 0002969  13.7072  66.2412 15.73258815  1305
STARLINK-4130           
1 53263U 22086X   22230.58334491  .00088617  00000+0  62873-3 0  9991
2 53263  53.2174 279.3708 0002708  21.8439  59.8727 15.73214092  1309
STARLINK-3950           
1 53264U 22086Y   22230.58334491  .00087654  00000+0  62303-3 0  9990
2 53264  53.2183 279.3708 0002522  20.3788  60.1706 15.73176599  1306
STARLINK-4097           
1 53265U 22086Z   22230.58334491  .00029633  00000+0  21451-3 0  9993
2 53265  53.2188 279.3685 0002940  13.3854  69.5394 15.73230136  1300
STARLINK-4058           
1 53266U 22086AA  22230.58334491  .00020036  00000+0  14657-3 0  9992
2 53266  53.2186 279.3681 0002974  13.3217  69.0056 15.73240861  1301
STARLINK-4060           
1 53267U 22086AB  22230.58334491 -.00014843  00000+0 -10122-3 0  9997
2 53267  53.2187 279.3640 0002976  12.9016  71.8510 15.73259236  1304
STARLINK-4109           
1 53268U 22086AC  22230.58334491  .00097595  00000+0  69243-3 0  9999
2 53268  53.2183 279.3645 0002777  12.6579  70.9347 15.73173804  1300
STARLINK-4057           
1 53269U 22086AD  22230.58334491 -.00008057  00000+0 -52895-4 0  9993
2 53269  53.2187 279.3619 0002474  23.3374  62.5956 15.73252780  1306
STARLINK-4069           
1 53271U 22086AF  22230.58334491  .00022730  00000+0  16582-3 0  9990
2 53271  53.2187 279.3589 0002838  21.1653  65.9684 15.73213830  1303
STARLINK-4122           
1 53272U 22086AG  22230.58334491 -.00016117  00000+0 -11028-3 0  9995
2 53272  53.2187 279.3620 0003247  13.8053  71.5526 15.73261601  1304
STARLINK-4051           
1 53273U 22086AH  22230.58334491 -.00061239  00000+0 -43393-3 0  9991
2 53273  53.2185 279.3558 0002239  23.9337  64.4220 15.73258822  1303
STARLINK-4050           
1 53274U 22086AJ  22230.58334491 -.00000943  00000+0 -22756-5 0  9999
2 53274  53.2185 279.3592 0002443  20.4191  66.1215 15.73255155  1308
STARLINK-4179           
1 53275U 22086AK  22230.58334491 -.00008288  00000+0 -54521-4 0  9994
2 53275  53.2185 279.3546 0003318   9.8062  79.1250 15.73252514  1307
STARLINK-4174           
1 53276U 22086AL  22230.58334491  .00021732  00000+0  15866-3 0  9990
2 53276  53.2190 279.3595 0003029  17.0227  70.6517 15.73227751  1308
STARLINK-4178           
1 53277U 22086AM  22230.58334491  .00025409  00000+0  18458-3 0  9996
2 53277  53.2184 279.3511 0002372  19.6672  71.0155 15.73240543  1309
STARLINK-4180           
1 53278U 22086AN  22230.58334491  .00012441  00000+0  92766-4 0  9994
2 53278  53.2183 279.3525 0002421  20.5289  68.9479 15.73241222  1303
STARLINK-4169           
1 53280U 22086AQ  22230.58334491 -.00014270  00000+0 -97176-4 0  9991
2 53280  53.2185 279.3521 0002545  22.3755  67.7556 15.73252919  1307
STARLINK-4182           
1 53281U 22086AR  22230.58334491  .00094448  00000+0  66965-3 0  9996
2 53281  53.2186 279.3482 0002946  13.4673  78.9956 15.73203009  1304
STARLINK-4164           
1 53282U 22086AS  22230.58334491 -.00011292  00000+0 -75958-4 0  9998
2 53282  53.2187 279.3507 0002359  20.9449  70.3524 15.73250209  1307
STARLINK-4175           
1 53283U 22086AT  22230.58334491  .00021749  00000+0  15863-3 0  9993
2 53283  53.2190 279.3488 0002437  20.7487  72.3097 15.73250849  1304
STARLINK-4172           
1 53284U 22086AU  22230.58334491  .00073136  00000+0  52086-3 0  9999
2 53284  53.2185 279.3485 0002502  20.3779  71.5159 15.73203966  1307
STARLINK-4173           
1 53285U 22086AV  22230.58334491  .00035502  00000+0  25602-3 0  9999
2 53285  53.2189 279.3448 0002416  21.3055  73.5438 15.73224327  1309
STARLINK-4165           
1 53286U 22086AW  22230.58334491  .00024620  00000+0  17924-3 0  9997
2 53286  53.2184 279.3446 0002276  28.1458  65.5724 15.73210280  1301
STARLINK-4107           
1 53287U 22086AX  22230.58334491  .00031199  00000+0  22563-3 0  9992
2 53287  53.2172 279.3418 0002667  18.2579  77.7722 15.73224365  1308
STARLINK-4162           
1 53288U 22086AY  22230.58334491 -.00011714  00000+0 -78964-4 0  9993
2 53288  53.2181 279.3422 0002399  24.1168  70.1840 15.73249873  1305
STARLINK-4176           
1 53289U 22086AZ  22230.58334491  .00031372  00000+0  22675-3 0  9991
2 53289  53.2186 279.3389 0002425  20.3823  76.8417 15.73235525  1301
STARLINK-4149           
1 53290U 22086BA  22230.58334491  .00025289  00000+0  18375-3 0  9995
2 53290  53.2183 279.3410 0002513  23.8727  71.5690 15.73238186  1305
STARLINK-4166           
1 53291U 22086BB  22230.58334491  .00089700  00000+0  63717-3 0  9994
2 53291  53.2172 279.3380 0002370  23.1310  74.7570 15.73182128  1308
STARLINK-4159           
1 53292U 22086BC  22230.58334491  .00087233  00000+0  61950-3 0  9991
2 53292  53.2184 279.3387 0002435  24.5463  72.1090 15.73199138  1303
STARLINK-4148           
1 53293U 22086BD  22230.58334491  .00016341  00000+0  12049-3 0  9999
2 53293  53.2188 279.3375 0002390  23.7516  74.6951 15.73225666  1304
STARLINK-4146           
1 53294U 22086BE  22230.58334491  .00028299  00000+0  20516-3 0  9993
2 53294  53.2183 279.3340 0002411  28.6783  70.3302 15.73223005  1304
2022-087A               
1 53299U 22087A   22230.47560199  .00003669  00000+0  16714-3 0  9992
2 53299  97.4040 304.5450 0014636 200.4748 282.9479 15.21212797  3393
2022-087B               
1 53300U 22087B   22230.47138468  .00003552  00000+0  16015-3 0  9990
2 53300  97.4040 304.5530 0014539 207.6173 282.7662 15.21583612  3397
2022-087C               
1 53301U 22087C   22230.52146132  .00003395  00000+0  15293-3 0  9996
2 53301  97.4033 304.6031 0015291 207.4306 201.7446 15.21638317  3405
2022-087D               
1 53302U 22087D   22230.46558020  .00006623  00000+0  29258-3 0  9996
2 53302  97.4040 304.5594 0014318 213.6811 270.3533 15.21967380  3398
2022-087E               
1 53303U 22087E   22230.46457426  .00004004  00000+0  17801-3 0  9997
2 53303  97.4067 304.5676 0015537 212.8705 271.1861 15.21980454  3396
ZK-1A R/B               
1 53304U 22087F   22230.19844202  .00037345  00000+0  38318-3 0  9990
2 53304  97.2782 304.8058 0173414 231.8006 126.7522 15.48296010  3408
1998-067TQ              
1 53305U 98067TQ  22230.51795756  .00039218  00000+0  65278-3 0  9993
2 53305  51.6424  27.6732 0003063 132.3122 227.8127 15.51633241  4333
1998-067TR              
1 53306U 98067TR  22230.51491134  .00045907  00000+0  75493-3 0  9999
2 53306  51.6423  27.6537 0002516 136.6386 223.4802 15.51901244  4330
1998-067TS              
1 53307U 98067TS  22230.51459932  .00045341  00000+0  74555-3 0  9990
2 53307  51.6421  27.6509 0002512 121.6900 238.4335 15.51909414  4367
RS3S                    
1 53308U 98067TT  22230.51431785  .00045085  00000+0  74143-3 0  9995
2 53308  51.6423  27.6500 0002292 125.4224 234.6980 15.51909237  4397
RS1S                    
1 53309U 98067TU  22230.51369212  .00045198  00000+0  74185-3 0  9992
2 53309  51.6420  27.6447 0002862 143.8498 216.2686 15.51960922  4347
RS5S                    
1 53310U 98067TV  22230.51382442  .00042898  00000+0  70601-3 0  9997
2 53310  51.6425  27.6467 0002602 145.2947 214.8213 15.51909509  4370
RS6S                    
1 53311U 98067TW  22230.51234279  .00048114  00000+0  78534-3 0  9992
2 53311  51.6419  27.6358 0002033 117.2912 242.8285 15.52090054  4391
RS9S                    
1 53312U 98067TX  22230.51275169  .00045867  00000+0  75114-3 0  9999
2 53312  51.6423  27.6386 0003070 147.2248 212.8933 15.52016925  4331
RS12S                   
1 53313U 98067TY  22230.51196651  .00044963  00000+0  73526-3 0  9999
2 53313  51.6423  27.6339 0002587 153.0880 207.0244 15.52067836  4382
YAOGAN-35 03A           
1 53316U 22088A   22230.54455730 -.00057806  00000+0 -24141-2 0  9991
2 53316  34.9901 358.9995 0005929  90.4146   2.6368 15.23023865  3040
